[Satellite]
VERSION=1.1
NAME=COSMO-SKYMED 2
NICKNAME=COSMO-SKYMED 2
TLE1=1 32376U 07059A   17186.23253968 -.00001284  00000-0 -15482-3 0  9993
TLE2=2 32376  97.8877   9.6754 0001390  90.8179 269.3123 14.82151122517867
